{"fetched_at":"2026-07-21T17:53:10.368Z","source":"https://celestrak.org/NORAD/elements/gp.php?GROUP=spire&FORMAT=JSON","constellation":"spire","records":[{"OBJECT_NAME":"LEMUR-2-HUBBLE-4","OBJECT_ID":"2025-135AP","EPOCH":"2026-07-21T02:28:42.481344","CLASSIFICATION_TYPE":"U","MEAN_MOTION":14.93695378,"ECCENTRICITY":0.00031051,"INCLINATION":97.7722,"RA_OF_ASC_NODE":315.6187,"ARG_OF_PERICENTER":148.5011,"MEAN_ANOMALY":211.6396,"EPHEMERIS_TYPE":0,"NORAD_CAT_ID":64565,"ELEMENT_SET_NO":999,"REV_AT_EPOCH":5893,"BSTAR":0.000073729687,"MEAN_MOTION_DOT":0.00000723,"MEAN_MOTION_DDOT":0},{"OBJECT_NAME":"LEMUR-2-SEJONG-2","OBJECT_ID":"2025-135BL","EPOCH":"2026-07-21T06:20:38.614848","CLASSIFICATION_TYPE":"U","MEAN_MOTION":14.9694452,"ECCENTRICITY":0.00043278,"INCLINATION":97.771,"RA_OF_ASC_NODE":317.0616,"ARG_OF_PERICENTER":190.6239,"MEAN_ANOMALY":169.4892,"EPHEMERIS_TYPE":0,"NORAD_CAT_ID":64586,"ELEMENT_SET_NO":999,"REV_AT_EPOCH":5904,"BSTAR":0.00032678623,"MEAN_MOTION_DOT":0.00003697,"MEAN_MOTION_DDOT":0},{"OBJECT_NAME":"LEMUR-2-HUBBLE-5","OBJECT_ID":"2025-135BT","EPOCH":"2026-07-20T20:12:42.583392","CLASSIFICATION_TYPE":"U","MEAN_MOTION":14.94221604,"ECCENTRICITY":0.00047674,"INCLINATION":97.7742,"RA_OF_ASC_NODE":316.0356,"ARG_OF_PERICENTER":212.8278,"MEAN_ANOMALY":147.2647,"EPHEMERIS_TYPE":0,"NORAD_CAT_ID":64840,"ELEMENT_SET_NO":999,"REV_AT_EPOCH":5893,"BSTAR":0.000072277989,"MEAN_MOTION_DOT":0.00000718,"MEAN_MOTION_DDOT":0},{"OBJECT_NAME":"LEMUR-2-KARENDARRELL","OBJECT_ID":"2025-135BU","EPOCH":"2026-07-20T20:45:08.400384","CLASSIFICATION_TYPE":"U","MEAN_MOTION":15.00548023,"ECCENTRICITY":0.00128951,"INCLINATION":97.772,"RA_OF_ASC_NODE":318.0329,"ARG_OF_PERICENTER":87.6727,"MEAN_ANOMALY":272.5973,"EPHEMERIS_TYPE":0,"NORAD_CAT_ID":64841,"ELEMENT_SET_NO":999,"REV_AT_EPOCH":5906,"BSTAR":0.00041543134,"MEAN_MOTION_DOT":0.00005189,"MEAN_MOTION_DDOT":0},{"OBJECT_NAME":"LEMUR-2-LUCILLE-ROSE","OBJECT_ID":"2025-135BV","EPOCH":"2026-07-21T02:31:06.336480","CLASSIFICATION_TYPE":"U","MEAN_MOTION":15.00533214,"ECCENTRICITY":0.00154773,"INCLINATION":97.7694,"RA_OF_ASC_NODE":318.307,"ARG_OF_PERICENTER":171.4432,"MEAN_ANOMALY":188.7058,"EPHEMERIS_TYPE":0,"NORAD_CAT_ID":65403,"ELEMENT_SET_NO":999,"REV_AT_EPOCH":5372,"BSTAR":0.00040912534,"MEAN_MOTION_DOT":0.00005111,"MEAN_MOTION_DDOT":0},{"OBJECT_NAME":"LEMUR-2-AFFIE-WAUWIE","OBJECT_ID":"2025-248C","EPOCH":"2026-07-21T06:02:58.010784","CLASSIFICATION_TYPE":"U","MEAN_MOTION":15.2842034,"ECCENTRICITY":0.00093047,"INCLINATION":45.3907,"RA_OF_ASC_NODE":290.2433,"ARG_OF_PERICENTER":283.224,"MEAN_ANOMALY":76.7611,"EPHEMERIS_TYPE":0,"NORAD_CAT_ID":66295,"ELEMENT_SET_NO":999,"REV_AT_EPOCH":3980,"BSTAR":0.0006096442,"MEAN_MOTION_DOT":0.00016937,"MEAN_MOTION_DDOT":0},{"OBJECT_NAME":"OTTER SDM","OBJECT_ID":"2025-276N","EPOCH":"2026-07-21T03:41:06.173952","CLASSIFICATION_TYPE":"U","MEAN_MOTION":15.20098954,"ECCENTRICITY":0.00047016,"INCLINATION":97.4195,"RA_OF_ASC_NODE":275.0715,"ARG_OF_PERICENTER":227.0821,"MEAN_ANOMALY":133.0021,"EPHEMERIS_TYPE":0,"NORAD_CAT_ID":66678,"ELEMENT_SET_NO":999,"REV_AT_EPOCH":3557,"BSTAR":0.00020749186,"MEAN_MOTION_DOT":0.00004414,"MEAN_MOTION_DDOT":0},{"OBJECT_NAME":"LEMUR-2-STAS-GORBUK","OBJECT_ID":"2025-276W","EPOCH":"2026-07-21T04:14:13.462944","CLASSIFICATION_TYPE":"U","MEAN_MOTION":15.19695406,"ECCENTRICITY":0.00040432,"INCLINATION":97.4229,"RA_OF_ASC_NODE":275.145,"ARG_OF_PERICENTER":220.968,"MEAN_ANOMALY":139.1252,"EPHEMERIS_TYPE":0,"NORAD_CAT_ID":66686,"ELEMENT_SET_NO":999,"REV_AT_EPOCH":3557,"BSTAR":0.00017789899,"MEAN_MOTION_DOT":0.0000373,"MEAN_MOTION_DDOT":0},{"OBJECT_NAME":"LEMUR-2-TEODOR","OBJECT_ID":"2025-276DG","EPOCH":"2026-07-21T02:57:02.871360","CLASSIFICATION_TYPE":"U","MEAN_MOTION":15.21376204,"ECCENTRICITY":0.00020924,"INCLINATION":97.4132,"RA_OF_ASC_NODE":275.3717,"ARG_OF_PERICENTER":83.2152,"MEAN_ANOMALY":276.9322,"EPHEMERIS_TYPE":0,"NORAD_CAT_ID":66768,"ELEMENT_SET_NO":999,"REV_AT_EPOCH":3560,"BSTAR":0.00018261146,"MEAN_MOTION_DOT":0.00004025,"MEAN_MOTION_DDOT":0},{"OBJECT_NAME":"LEMUR-2-LAILA","OBJECT_ID":"2025-276DQ","EPOCH":"2026-07-21T03:46:59.465280","CLASSIFICATION_TYPE":"U","MEAN_MOTION":15.21603356,"ECCENTRICITY":0.00028274,"INCLINATION":97.4155,"RA_OF_ASC_NODE":275.5482,"ARG_OF_PERICENTER":85.7271,"MEAN_ANOMALY":274.4288,"EPHEMERIS_TYPE":0,"NORAD_CAT_ID":66776,"ELEMENT_SET_NO":999,"REV_AT_EPOCH":3561,"BSTAR":0.00018771173,"MEAN_MOTION_DOT":0.00004167,"MEAN_MOTION_DDOT":0},{"OBJECT_NAME":"LEMUR-2-CELIJO-SB-PK","OBJECT_ID":"2025-276DW","EPOCH":"2026-07-21T02:53:51.213696","CLASSIFICATION_TYPE":"U","MEAN_MOTION":15.00324552,"ECCENTRICITY":0.00066542,"INCLINATION":97.5182,"RA_OF_ASC_NODE":271.7774,"ARG_OF_PERICENTER":49.8981,"MEAN_ANOMALY":310.2825,"EPHEMERIS_TYPE":0,"NORAD_CAT_ID":66781,"ELEMENT_SET_NO":999,"REV_AT_EPOCH":2771,"BSTAR":0.0003463897,"MEAN_MOTION_DOT":0.00004289,"MEAN_MOTION_DDOT":0},{"OBJECT_NAME":"LEMUR-2-FINNIAN","OBJECT_ID":"2025-276DX","EPOCH":"2026-07-20T18:09:03.377376","CLASSIFICATION_TYPE":"U","MEAN_MOTION":15.00651615,"ECCENTRICITY":0.00068821,"INCLINATION":97.5347,"RA_OF_ASC_NODE":271.7055,"ARG_OF_PERICENTER":339.6977,"MEAN_ANOMALY":20.3973,"EPHEMERIS_TYPE":0,"NORAD_CAT_ID":66782,"ELEMENT_SET_NO":999,"REV_AT_EPOCH":2503,"BSTAR":0.00013237825,"MEAN_MOTION_DOT":0.00001617,"MEAN_MOTION_DDOT":0},{"OBJECT_NAME":"LEMUR-2-STARLIGHT","OBJECT_ID":"2025-276DY","EPOCH":"2026-07-21T03:24:26.468064","CLASSIFICATION_TYPE":"U","MEAN_MOTION":14.99404237,"ECCENTRICITY":0.00145694,"INCLINATION":97.5237,"RA_OF_ASC_NODE":271.6217,"ARG_OF_PERICENTER":29.2659,"MEAN_ANOMALY":330.9377,"EPHEMERIS_TYPE":0,"NORAD_CAT_ID":66783,"ELEMENT_SET_NO":999,"REV_AT_EPOCH":3528,"BSTAR":0.00042784416,"MEAN_MOTION_DOT":0.00005194,"MEAN_MOTION_DDOT":0},{"OBJECT_NAME":"LEMUR-2-TARTIFLETTE","OBJECT_ID":"2025-276DZ","EPOCH":"2026-07-21T03:22:14.263104","CLASSIFICATION_TYPE":"U","MEAN_MOTION":14.99385365,"ECCENTRICITY":0.00138286,"INCLINATION":97.5234,"RA_OF_ASC_NODE":271.628,"ARG_OF_PERICENTER":38.007,"MEAN_ANOMALY":322.2126,"EPHEMERIS_TYPE":0,"NORAD_CAT_ID":66784,"ELEMENT_SET_NO":999,"REV_AT_EPOCH":3528,"BSTAR":0.00040272241,"MEAN_MOTION_DOT":0.00004882,"MEAN_MOTION_DDOT":0},{"OBJECT_NAME":"LEMUR-2-VUKASIN","OBJECT_ID":"2025-276EA","EPOCH":"2026-07-21T04:08:44.219328","CLASSIFICATION_TYPE":"U","MEAN_MOTION":15.00579723,"ECCENTRICITY":0.00021227,"INCLINATION":97.52,"RA_OF_ASC_NODE":272.0268,"ARG_OF_PERICENTER":33.378,"MEAN_ANOMALY":326.7577,"EPHEMERIS_TYPE":0,"NORAD_CAT_ID":66785,"ELEMENT_SET_NO":999,"REV_AT_EPOCH":3524,"BSTAR":0.00030092036,"MEAN_MOTION_DOT":0.00003742,"MEAN_MOTION_DDOT":0},{"OBJECT_NAME":"LEMUR-2-HOTSPUR-TOM","OBJECT_ID":"2025-276EB","EPOCH":"2026-07-21T04:50:51.657792","CLASSIFICATION_TYPE":"U","MEAN_MOTION":14.99281418,"ECCENTRICITY":0.00135538,"INCLINATION":97.5213,"RA_OF_ASC_NODE":271.6592,"ARG_OF_PERICENTER":29.6635,"MEAN_ANOMALY":330.5355,"EPHEMERIS_TYPE":0,"NORAD_CAT_ID":66786,"ELEMENT_SET_NO":999,"REV_AT_EPOCH":3522,"BSTAR":0.00036379133,"MEAN_MOTION_DOT":0.00004392,"MEAN_MOTION_DDOT":0}]}
